NANOSATC-BR1            
1 40024U 14033Q   24196.49197051  .00012342  00000+0  89796-3 0  9992
2 40024  98.0625 169.7406 0008081  83.2295 276.9849 15.03935281547357
QB50P1                  
1 40025U 14033R   24196.43454361  .00009266  00000+0  74436-3 0  9993
2 40025  98.0391 158.0862 0015429  76.1950 284.0988 15.00180277546962
QB50P2                  
1 40032U 14033Y   24196.82739562  .00010261  00000+0  85235-3 0  9999
2 40032  98.0085 150.0146 0012392  69.8208 290.4346 14.98891535547331
PERSEUS-M2              
1 40037U 14033AD  24196.34828212  .00003219  00000+0  33385-3 0  9996
2 40037  97.9260 127.2370 0014725 104.3194 255.9660 14.90627881545870
PERSEUS-M1              
1 40039U 14033AF  24196.84748375  .00003010  00000+0  31420-3 0  9991
2 40039  97.9060 123.7149 0014533 102.1106 258.1741 14.90417301546310
POLYITAN-1              
1 40042U 14033AJ  24196.85140833  .00015310  00000+0  11337-2 0  9991
2 40042  98.0707 162.2799 0014067  46.5211 313.7180 15.03163172547509
TIGRISAT                
1 40043U 14033AK  24196.40346815  .00004160  00000+0  55461-3 0  9999
2 40043  97.6981 357.9627 0054509 213.7209 146.0531 14.79106571541482
AEROCUBE 6A             
1 40045U 14033AM  24196.44051115  .00008700  00000+0  10310-2 0  9998
2 40045  97.6719   8.8503 0050032 190.7193 169.2960 14.83862471541836
AEROCUBE 6B             
1 40046U 14033AN  24196.52756169  .00008643  00000+0  10036-2 0  9990
2 40046  97.6682   7.6629 0048788 185.7341 174.3322 14.84745252541901
UKUBE-1                 
1 40074U 14037F   24196.79449957  .00009630  00000+0  90108-3 0  9994
2 40074  98.3412 128.4234 0003916   6.7334 353.3936 14.94320548542902
BRITE-PL2 (HEWELIUSZ)   
1 40119U 14049B   24196.23240548  .00003605  00000+0  38793-3 0  9999
2 40119  97.8839 295.7818 0014393 275.4974  84.4601 14.89056268536601
AEROCUBE 5C             
1 40965U 15058B   24196.57785768  .00003948  00000+0  36549-3 0  9991
2 40965  64.7703 277.5424 0191979 299.8623  58.3526 14.83029779261108
AEROCUBE 7              
1 40966U 15058C   24196.55728418  .00004963  00000+0  43928-3 0  9996
2 40966  64.7674 271.1163 0186809 299.5170  58.7422 14.84965164261170
FOX-1A (AO-85)          
1 40967U 15058D   24196.58206417  .00004037  00000+0  38041-3 0  9992
2 40967  64.7784 291.4935 0191207 295.6728  62.4740 14.82428707  9056
SINOD-D 1               
1 40968U 15058E   24196.58395639  .00005477  00000+0  49091-3 0  9994
2 40968  64.7783 283.9917 0185889 294.6643  63.5207 14.84483771 11884
SNAP-3 ALICE            
1 40970U 15058G   24196.49558437  .00014501  00000+0  98734-3 0  9990
2 40970  64.7695 239.9029 0156032 292.8018  65.6679 14.97055386  9871
LMRST-SAT               
1 40971U 15058H   24196.55799178  .00004018  00000+0  37785-3 0  9998
2 40971  64.7772 287.1008 0192368 297.0657  61.0935 14.82367871  9052
SNAP-3 EDDIE            
1 40972U 15058J   24196.49934828  .00015923  00000+0  10699-2 0  9996
2 40972  64.7673 233.2497 0156626 293.7115  64.7634 14.97402121 11970
PROPCUBE 3              
1 40973U 15058K   24196.61724022  .00004741  00000+0  42622-3 0  9992
2 40973  64.7712 274.4839 0188817 298.4007  59.8181 14.84210474 10101
BISONSAT                
1 40974U 15058L   24196.59696272  .00010297  00000+0  78210-3 0  9990
2 40974  64.7672 247.9198 0170033 296.1259  62.2444 14.91776533  9856
SNAP-3 JIMI             
1 40975U 15058M   24196.57870016  .00006831  00000+0  57015-3 0  9998
2 40975  64.7693 262.2473 0180839 297.3928  60.8883 14.87448784  9105
PROPCUBE 1 (FLORA)      
1 40976U 15058N   24196.57333208  .00003669  00000+0  35956-3 0  9992
2 40976  64.7770 302.6267 0190373 298.2927  59.9085 14.81227626 11857
SINOD-D 3               
1 40977U 15058P   24196.59326151  .00004944  00000+0  46096-3 0  9998
2 40977  64.7760 295.6120 0185008 297.4670  60.7733 14.83262414 10092
VELOX-II                
1 41171U 15077F   24196.61738071  .00855399  28851-3  17650-2 0  9996
2 41171  14.9824 189.2177 0006249 183.9538 176.0745 15.97770909476200
HORYU-4                 
1 41340U 16012D   24196.90845967  .00016678  00000+0  81135-3 0  9990
2 41340  31.0008 154.8306 0010507 254.3689 105.5791 15.17163894462367
RAVAN                   
1 41849U 16067B   24196.46504913  .00011269  00000+0  61077-3 0  9992
2 41849  98.0656  15.7699 0011750 296.8798  63.1231 15.14723398420119
CELTEE 1                
1 41850U 16067C   24196.45998708  .00006945  00000+0  46870-3 0  9991
2 41850  98.1054   7.3696 0002330 100.7015 259.4474 15.06960321419530
OPTICUBE 04             
1 41851U 16067D   24196.51770923  .00003893  00000+0  29364-3 0  9994
2 41851  98.0798   2.6074 0016796 329.9049  30.1208 15.02975693419348
AEROCUBE 8D             
1 41852U 16067E   24196.42675905  .00009221  00000+0  59933-3 0  9995
2 41852  98.1093   7.1573 0005118  27.6091 332.5406 15.08247746419501
AEROCUBE 8C             
1 41853U 16067F   24196.44113042  .00008177  00000+0  53262-3 0  9995
2 41853  98.0904   5.6841 0006821 311.9903  48.0743 15.08198357419490
PROMETHEUS 2-1          
1 41854U 16067G   24196.46021888  .00018263  00000+0  89975-3 0  9991
2 41854  98.1009  13.5162 0011444 325.9960  34.0537 15.17967580419877
PROMETHEUS 2-3          
1 41855U 16067H   24196.45709061  .00018300  00000+0  90286-3 0  9996
2 41855  98.0941  12.9748 0009732 337.1535  22.9263 15.17932304419873
DIDO-2                  
1 42000U 17008BE  24193.14122659  .03664044  23375-5  67438-3 0  9994
2 42000  97.1246 256.7610 0012848 257.1819 102.8042 16.32105501412648
AALTO-1                 
1 42775U 17036L   24196.66214376  .00161343  00000+0  10633-2 0  9991
2 42775  97.0988 226.7747 0006639 121.8438 238.3475 15.75144287393421
CORVUS BC2              
1 42846U 17042X   24196.44547401  .00004728  00000+0  40526-3 0  9999
2 42846  97.3740  20.0331 0007238 333.7158  26.3697 14.97953995381528
CORVUS BC1              
1 42847U 17042Y   24196.47054190  .00005437  00000+0  46335-3 0  9993
2 42847  97.3753  20.4628 0006911 339.4518  20.6426 14.98123292381545
MIRATA                  
1 43015U 17073C   24196.67182146  .00025114  00000+0  11479-2 0  9994
2 43015  97.5926  81.1153 0167034 166.2812 194.3041 15.08877866360477
MAKERSAT 0              
1 43016U 17073D   24196.59976764  .00012810  00000+0  71659-3 0  9999
2 43016  97.5738  74.8301 0193976 189.4498 170.3057 14.98919601360017
GOMX-4B                 
1 43196U 18015E   24196.45806233  .00080856  00000+0  73725-3 0  9994
2 43196  97.6061  12.2437 0007684 205.8270 154.2607 15.67605425359791
GOMX-4A                 
1 43197U 18015F   24196.82885264  .00209030  00000+0  88316-3 0  9996
2 43197  97.5944  18.3787 0006916 203.6375 156.4578 15.84831117360246
CICERO 10               
1 43690U 18088A   24196.88274619  .01200357  90986-3  13041-2 0  9998
2 43690  84.9942 158.7476 0012714 167.3325 192.8286 16.09948433316609
SIRION PATHFINDER-2     
1 43759U 18099B   24196.59026503  .00006222  00000+0  46499-3 0  9993
2 43759  97.5247 251.9675 0010976 187.8766 172.2289 15.03091781306628
CORVUS BC4              
1 43767U 18099K   24196.56980811  .00007188  00000+0  54671-3 0  9993
2 43767  97.5086 249.0745 0010030 251.1463 108.8674 15.02378771306500
MOVE-II                 
1 43780U 18099Y   24196.73994945  .00024834  00000+0  12558-2 0  9994
2 43780  97.5195 259.4925 0005968 228.6023 131.4698 15.17017536307106
SPACEBEE-7              
1 43816U 18099BL  24196.73384667  .00018158  00000+0  10450-2 0  9999
2 43816  97.5467 260.1121 0010246 185.3691 174.7432 15.12454532306572
SPACEBEE-6              
1 43818U 18099BN  24196.45781470  .00040350  00000+0  15945-2 0  9996
2 43818  97.5393 265.6720 0009228 184.7162 175.3990 15.25342367307068
SHIELDS 1               
1 43850U 18104B   24196.64084379  .00015482  00000+0  40383-3 0  9997
2 43850  85.0220 264.4635 0008869 338.2928  21.7945 15.38656224310380
SONATE                  
1 44400U 19038Q   24196.52097208  .00025739  00000+0  74604-3 0  9997
2 44400  97.7127 191.8605 0015425  18.7779 341.4029 15.35419402278276
LUCKY-7                 
1 44406U 19038W   24196.56075473  .00048950  00000+0  97716-3 0  9996
2 44406  97.7013 196.4234 0010645   5.1706 354.9651 15.46629614278599
DUCHIFAT-3              
1 44854U 19089C   24196.50773497  .00017378  00000+0  85382-3 0  9990
2 44854  36.9558 243.0206 0005606 307.6730  52.3508 15.17361339252420
M2 PATHFINDER           
1 45727U 20037E   24196.45234881  .00004656  00000+0  40502-3 0  9998
2 45727  97.7795  12.7466 0012271  40.2362 319.9766 14.97391893220028
NETSAT-4                
1 46504U 20068U   24196.40515604  .00010447  00000+0  54949-3 0  9991
2 46504  97.8066 154.2951 0007557 267.6675  92.3691 15.15833405208293
NETSAT-3                
1 46505U 20068V   24196.59828830  .00010175  00000+0  54438-3 0  9991
2 46505  97.8038 153.9658 0006927 277.6680  82.3765 15.15240454208310
NETSAT-1                
1 46506U 20068W   24196.87777972  .00010083  00000+0  56692-3 0  9995
2 46506  97.8062 153.6600 0005907 291.9589  68.1013 15.13475388208318
NETSAT-2                
1 46507U 20068X   24196.88593781  .00014045  00000+0  73834-3 0  9990
2 46507  97.8048 154.4113 0005121 298.9210  61.1508 15.15786459208315
WILDTRACKCUBE-SIMBA     
1 47941U 21022K   24196.85402553  .00018555  00000+0  80478-3 0  9999
2 47941  97.4573  93.3855 0016807  53.7505 306.5281 15.22276094182679
BEESAT-6                
1 47957U 21022AB  24195.71643252  .07877496  25124-5  21409-2 0  9995
2 47957  97.4034 106.4772 0010345 199.6209 160.4687 16.28028729183275
SMOG-1                  
1 47964U 21022AJ  24196.53854246  .00648893  00000+0  24592-2 0  9997
2 47964  97.4497 110.0470 0006890 134.8270 225.3562 15.86067539182548
